{
 "generated_at": "2026-07-13T08:17:10Z",
 "sources": [
  {
   "name": "CelesTrak",
   "url": "https://celestrak.org/NORAD/elements/",
   "license": "frei verfügbar; Attribution. Ursprünglich USSPACECOM/Space-Track."
  },
  {
   "name": "GCAT (J. McDowell, planet4589.org)",
   "url": "https://planet4589.org/space/gcat/",
   "license": "CC-BY 4.0"
  }
 ],
 "satellites": [
  {
   "norad": 39766,
   "name": "ALOS-2",
   "intl": "2014-029A",
   "group": "resource",
   "gcat": {
    "class": "C",
    "category": "IMG",
    "owner": "JAXA",
    "state": "J"
   },
   "omm": {
    "OBJECT_NAME": "ALOS-2",
    "OBJECT_ID": "2014-029A",
    "EPOCH": "2026-07-12T20:09:06.165216",
    "MEAN_MOTION": 14.79471808,
    "ECCENTRICITY": 0.0001601,
    "INCLINATION": 97.9226,
    "RA_OF_ASC_NODE": 290.6369,
    "ARG_OF_PERICENTER": 92.8363,
    "MEAN_ANOMALY": 267.3032,
    "EPHEMERIS_TYPE": 0,
    "CLASSIFICATION_TYPE": "U",
    "NORAD_CAT_ID": 39766,
    "ELEMENT_SET_NO": 999,
    "REV_AT_EPOCH": 65537,
    "BSTAR": 0.00016582,
    "MEAN_MOTION_DOT": 0.00001187,
    "MEAN_MOTION_DDOT": 0
   }
  },
  {
   "norad": 60182,
   "name": "ALOS-4 (DAICHI-4)",
   "intl": "2024-123A",
   "group": "resource",
   "gcat": {
    "class": "C",
    "category": "IMG",
    "owner": "JAXA",
    "state": "J"
   },
   "omm": {
    "OBJECT_NAME": "ALOS-4 (DAICHI-4)",
    "OBJECT_ID": "2024-123A",
    "EPOCH": "2026-07-12T17:22:11.205120",
    "MEAN_MOTION": 14.7947736,
    "ECCENTRICITY": 0.0001592,
    "INCLINATION": 97.9221,
    "RA_OF_ASC_NODE": 290.5332,
    "ARG_OF_PERICENTER": 97.7402,
    "MEAN_ANOMALY": 262.3991,
    "EPHEMERIS_TYPE": 0,
    "CLASSIFICATION_TYPE": "U",
    "NORAD_CAT_ID": 60182,
    "ELEMENT_SET_NO": 999,
    "REV_AT_EPOCH": 10965,
    "BSTAR": 0.00010387,
    "MEAN_MOTION_DOT": 0.00000724,
    "MEAN_MOTION_DDOT": 0
   }
  },
  {
   "norad": 41785,
   "name": "ALSAT-1B",
   "intl": "2016-059C",
   "group": "resource",
   "gcat": {
    "class": "C",
    "category": "IMG",
    "owner": "ASAL",
    "state": "DZ"
   },
   "omm": {
    "OBJECT_NAME": "ALSAT-1B",
    "OBJECT_ID": "2016-059C",
    "EPOCH": "2026-07-12T20:41:35.445984",
    "MEAN_MOTION": 14.72293869,
    "ECCENTRICITY": 0.0010155,
    "INCLINATION": 97.7755,
    "RA_OF_ASC_NODE": 201.5178,
    "ARG_OF_PERICENTER": 136.2572,
    "MEAN_ANOMALY": 223.9442,
    "EPHEMERIS_TYPE": 0,
    "CLASSIFICATION_TYPE": "U",
    "NORAD_CAT_ID": 41785,
    "ELEMENT_SET_NO": 999,
    "REV_AT_EPOCH": 52435,
    "BSTAR": 0.000066834,
    "MEAN_MOTION_DOT": 0.00000375,
    "MEAN_MOTION_DDOT": 0
   }
  },
  {
   "norad": 27424,
   "name": "AQUA",
   "intl": "2002-022A",
   "group": "resource",
   "gcat": {
    "class": "C",
    "category": "IMG",
    "owner": "GSFC",
    "state": "US"
   },
   "omm": {
    "OBJECT_NAME": "AQUA",
    "OBJECT_ID": "2002-022A",
    "EPOCH": "2026-07-12T21:54:23.059296",
    "MEAN_MOTION": 14.62195196,
    "ECCENTRICITY": 0.0000864,
    "INCLINATION": 98.4294,
    "RA_OF_ASC_NODE": 163.7125,
    "ARG_OF_PERICENTER": 108.8614,
    "MEAN_ANOMALY": 267.3759,
    "EPHEMERIS_TYPE": 0,
    "CLASSIFICATION_TYPE": "U",
    "NORAD_CAT_ID": 27424,
    "ELEMENT_SET_NO": 999,
    "REV_AT_EPOCH": 28703,
    "BSTAR": 0.000087043,
    "MEAN_MOTION_DOT": 0.00000389,
    "MEAN_MOTION_DDOT": 0
   }
  },
  {
   "norad": 29268,
   "name": "ARIRANG-2 (KOMPSAT-2)",
   "intl": "2006-031A",
   "group": "resource",
   "gcat": {
    "class": "C",
    "category": "IMG",
    "owner": "KARI",
    "state": "KR"
   },
   "omm": {
    "OBJECT_NAME": "ARIRANG-2 (KOMPSAT-2)",
    "OBJECT_ID": "2006-031A",
    "EPOCH": "2026-07-12T20:27:49.048128",
    "MEAN_MOTION": 14.64676178,
    "ECCENTRICITY": 0.0014472,
    "INCLINATION": 97.8313,
    "RA_OF_ASC_NODE": 17.0588,
    "ARG_OF_PERICENTER": 358.3809,
    "MEAN_ANOMALY": 113.4853,
    "EPHEMERIS_TYPE": 0,
    "CLASSIFICATION_TYPE": "U",
    "NORAD_CAT_ID": 29268,
    "ELEMENT_SET_NO": 999,
    "REV_AT_EPOCH": 6523,
    "BSTAR": 0.000098992,
    "MEAN_MOTION_DOT": 0.00000482,
    "MEAN_MOTION_DDOT": 0
   }
  },
  {
   "norad": 38338,
   "name": "ARIRANG-3 (KOMPSAT-3)",
   "intl": "2012-025B",
   "group": "resource",
   "gcat": {
    "class": "C",
    "category": "IMG",
    "owner": "KARI",
    "state": "KR"
   },
   "omm": {
    "OBJECT_NAME": "ARIRANG-3 (KOMPSAT-3)",
    "OBJECT_ID": "2012-025B",
    "EPOCH": "2026-07-12T19:56:24.438624",
    "MEAN_MOTION": 14.62227906,
    "ECCENTRICITY": 0.0006354,
    "INCLINATION": 98.1183,
    "RA_OF_ASC_NODE": 150.8505,
    "ARG_OF_PERICENTER": 45.0572,
    "MEAN_ANOMALY": 315.1144,
    "EPHEMERIS_TYPE": 0,
    "CLASSIFICATION_TYPE": "U",
    "NORAD_CAT_ID": 38338,
    "ELEMENT_SET_NO": 999,
    "REV_AT_EPOCH": 75509,
    "BSTAR": 0.000049654,
    "MEAN_MOTION_DOT": 0.00000204,
    "MEAN_MOTION_DDOT": 0
   }
  },
  {
   "norad": 39227,
   "name": "ARIRANG-5 (KOMPSAT-5)",
   "intl": "2013-042A",
   "group": "resource",
   "gcat": {
    "class": "C",
    "category": "IMG-R",
    "owner": "KARI",
    "state": "KR"
   },
   "omm": {
    "OBJECT_NAME": "ARIRANG-5 (KOMPSAT-5)",
    "OBJECT_ID": "2013-042A",
    "EPOCH": "2026-07-12T20:07:03.396864",
    "MEAN_MOTION": 15.04523453,
    "ECCENTRICITY": 0.0005597,
    "INCLINATION": 97.6214,
    "RA_OF_ASC_NODE": 20.1791,
    "ARG_OF_PERICENTER": 65.1043,
    "MEAN_ANOMALY": 295.0764,
    "EPHEMERIS_TYPE": 0,
    "CLASSIFICATION_TYPE": "U",
    "NORAD_CAT_ID": 39227,
    "ELEMENT_SET_NO": 999,
    "REV_AT_EPOCH": 70771,
    "BSTAR": 0.000054595,
    "MEAN_MOTION_DOT": 0.00000704,
    "MEAN_MOTION_DDOT": 0
   }
  },
  {
   "norad": 47719,
   "name": "ARKTIKA-M 1",
   "intl": "2021-016A",
   "group": "weather",
   "gcat": {
    "class": "C",
    "category": "MET",
    "owner": "ROSK",
    "state": "RU"
   },
   "omm": {
    "OBJECT_NAME": "ARKTIKA-M 1",
    "OBJECT_ID": "2021-016A",
    "EPOCH": "2026-07-07T10:17:34.884672",
    "MEAN_MOTION": 2.00614486,
    "ECCENTRICITY": 0.72950864,
    "INCLINATION": 63.2524,
    "RA_OF_ASC_NODE": 54.6812,
    "ARG_OF_PERICENTER": 270.038,
    "MEAN_ANOMALY": 14.5466,
    "EPHEMERIS_TYPE": 0,
    "CLASSIFICATION_TYPE": "U",
    "NORAD_CAT_ID": 47719,
    "ELEMENT_SET_NO": 999,
    "REV_AT_EPOCH": 3919,
    "BSTAR": 0,
    "MEAN_MOTION_DOT": -0.00000257,
    "MEAN_MOTION_DDOT": 0
   }
  },
  {
   "norad": 58584,
   "name": "ARKTIKA-M 2",
   "intl": "2023-198A",
   "group": "weather",
   "gcat": {
    "class": "C",
    "category": "MET",
    "owner": "ROSK",
    "state": "RU"
   },
   "omm": {
    "OBJECT_NAME": "ARKTIKA-M 2",
    "OBJECT_ID": "2023-198A",
    "EPOCH": "2026-07-10T04:34:00.609312",
    "MEAN_MOTION": 2.00608615,
    "ECCENTRICITY": 0.69090643,
    "INCLINATION": 63.2187,
    "RA_OF_ASC_NODE": 151.7914,
    "ARG_OF_PERICENTER": 267.3543,
    "MEAN_ANOMALY": 18.7503,
    "EPHEMERIS_TYPE": 0,
    "CLASSIFICATION_TYPE": "U",
    "NORAD_CAT_ID": 58584,
    "ELEMENT_SET_NO": 999,
    "REV_AT_EPOCH": 1878,
    "BSTAR": 0,
    "MEAN_MOTION_DOT": 0.00000186,
    "MEAN_MOTION_DDOT": 0
   }
  },
  {
   "norad": 40298,
   "name": "ASNARO",
   "intl": "2014-070A",
   "group": "resource",
   "gcat": {
    "class": null,
    "category": "IMG",
    "owner": "JSS",
    "state": "J"
   },
   "omm": {
    "OBJECT_NAME": "ASNARO",
    "OBJECT_ID": "2014-070A",
    "EPOCH": "2026-07-12T20:09:33.388128",
    "MEAN_MOTION": 15.19803923,
    "ECCENTRICITY": 0.0006858,
    "INCLINATION": 97.3448,
    "RA_OF_ASC_NODE": 269.2645,
    "ARG_OF_PERICENTER": 94.6926,
    "MEAN_ANOMALY": 265.5092,
    "EPHEMERIS_TYPE": 0,
    "CLASSIFICATION_TYPE": "U",
    "NORAD_CAT_ID": 40298,
    "ELEMENT_SET_NO": 999,
    "REV_AT_EPOCH": 64790,
    "BSTAR": 0.00015371,
    "MEAN_MOTION_DOT": 0.00003226,
    "MEAN_MOTION_DDOT": 0
   }
  }
 ]
}
